AL MUNTHER              
1 63240U 25052AG  26068.64540749  .00017933  00000+0  65015-3 0  9992
2 63240  97.4001 323.9152 0008027 130.7043 229.4895 15.28381521 54798
STARLINK-34539          
1 64674U 25139L   26068.54124975  .00016172  00000+0  55720-3 0  9994
2 64674  53.1596 127.5676 0001360  79.8701 280.2453 15.30185272 40163
